start=new Date('2023-02-03T00:00:00.000Z').valueOf();
sats=[{"PERIOD":"95.594","ELEMENT_SET_NO":"999","BSTAR":"0.00019570000000","GP_ID":"224251021","APOAPSIS":"548.420","EPHEMERIS_TYPE":"0","MEAN_MOTION":"15.06378528","NORAD_CAT_ID":"48119","OBJECT_ID":"2021-027AD","EPOCH":"2023-02-02T20:21:21.417120","ARG_OF_PERICENTER":"105.7346","RA_OF_ASC_NODE":"188.1571","TLE_LINE2":"2 48119  53.0524 188.1571 0001647 105.7346 254.3824 15.06378528101857","SEMIMAJOR_AXIS":"6925.414","LAUNCH_DATE":"2021-04-07","OBJECT_NAME":"STARLINK-2459","TLE_LINE1":"1 48119U 21027AD  23033.84816455  .00002633  00000-0  19570-3 0  9996","DECAY_DATE":null,"MEAN_ANOMALY":"254.3824","CLASSIFICATION_TYPE":"U","MEAN_MOTION_DOT":"0.00002633","OBJECT_TYPE":"PAYLOAD","MEAN_ELEMENT_THEORY":"SGP4","REV_AT_EPOCH":"10185","ECCENTRICITY":"0.00016470","PERIAPSIS":"546.139","CENTER_NAME":"EARTH","TIME_SYSTEM":"UTC","RCS_SIZE":"LARGE","INCLINATION":"53.0524","SITE":"AFETR","FILE":"3768675","REF_FRAME":"TEME","MEAN_MOTION_DDOT":"0.0000000000000","COUNTRY_CODE":"US"},{"LAUNCH_DATE":"2021-04-07","RA_OF_ASC_NODE":"208.1428","SEMIMAJOR_AXIS":"6925.365","TLE_LINE2":"2 48120  53.0510 208.1428 0001074  89.0695 271.0417 15.06394563101573","EPOCH":"2023-02-02T20:30:40.466592","ARG_OF_PERICENTER":"89.0695","OBJECT_ID":"2021-027AE","EPHEMERIS_TYPE":"0","APOAPSIS":"547.974","MEAN_MOTION":"15.06394563","NORAD_CAT_ID":"48120","BSTAR":"0.00002022100000","GP_ID":"224251045","PERIOD":"95.592","ELEMENT_SET_NO":"999","MEAN_MOTION_DDOT":"0.0000000000000","REF_FRAME":"TEME","COUNTRY_CODE":"US","SITE":"AFETR","FILE":"3768670","INCLINATION":"53.0510","TIME_SYSTEM":"UTC","CENTER_NAME":"EARTH","RCS_SIZE":"LARGE","ECCENTRICITY":"0.00010740","REV_AT_EPOCH":"10157","PERIAPSIS":"546.486","MEAN_ELEMENT_THEORY":"SGP4","MEAN_MOTION_DOT":"0.00000020","OBJECT_TYPE":"PAYLOAD","OBJECT_NAME":"STARLINK-2460","TLE_LINE1":"1 48120U 21027AE  23033.85463503  .00000020  00000-0  20221-4 0  9995","MEAN_ANOMALY":"271.0417","DECAY_DATE":null,"CLASSIFICATION_TYPE":"U"},{"BSTAR":"-0.00000999280000","GP_ID":"224256683","APOAPSIS":"548.060","EPHEMERIS_TYPE":"0","MEAN_MOTION":"15.06393708","NORAD_CAT_ID":"48121","ELEMENT_SET_NO":"999","PERIOD":"95.593","RA_OF_ASC_NODE":"198.2692","SEMIMAJOR_AXIS":"6925.368","TLE_LINE2":"2 48121  53.0522 198.2692 0001195  81.4579 278.6546 15.06393708101712","LAUNCH_DATE":"2021-04-07","OBJECT_ID":"2021-027AF","EPOCH":"2023-02-02T19:49:32.550816","ARG_OF_PERICENTER":"81.4579","MEAN_ELEMENT_THEORY":"SGP4","REV_AT_EPOCH":"10171","ECCENTRICITY":"0.00011950","PERIAPSIS":"546.405","OBJECT_NAME":"STARLINK-2462","MEAN_ANOMALY":"278.6546","TLE_LINE1":"1 48121U 21027AF  23033.82607119 -.00000430  00000-0 -99928-5 0  9994","DECAY_DATE":null,"CLASSIFICATION_TYPE":"U","MEAN_MOTION_DOT":"-0.00000430","OBJECT_TYPE":"PAYLOAD","SITE":"AFETR","FILE":"3768932","MEAN_MOTION_DDOT":"0.0000000000000","REF_FRAME":"TEME","COUNTRY_CODE":"US","TIME_SYSTEM":"UTC","CENTER_NAME":"EARTH","RCS_SIZE":"LARGE","INCLINATION":"53.0522"},{"MEAN_ELEMENT_THEORY":"SGP4","REV_AT_EPOCH":"10173","ECCENTRICITY":"0.00012290","PERIAPSIS":"546.365","OBJECT_NAME":"STARLINK-2463","TLE_LINE1":"1 48122U 21027AG  23033.49294624  .00000572  00000-0  57294-4 0  9995","DECAY_DATE":null,"MEAN_ANOMALY":"265.3648","CLASSIFICATION_TYPE":"U","MEAN_MOTION_DOT":"0.00000572","OBJECT_TYPE":"PAYLOAD","SITE":"AFETR","FILE":"3768676","MEAN_MOTION_DDOT":"0.0000000000000","REF_FRAME":"TEME","COUNTRY_CODE":"US","CENTER_NAME":"EARTH","TIME_SYSTEM":"UTC","RCS_SIZE":"LARGE","INCLINATION":"53.0542","BSTAR":"0.00005729400000","GP_ID":"224251066","MEAN_MOTION":"15.06399199","APOAPSIS":"548.067","EPHEMERIS_TYPE":"0","NORAD_CAT_ID":"48122","ELEMENT_SET_NO":"999","PERIOD":"95.592","RA_OF_ASC_NODE":"194.7288","TLE_LINE2":"2 48122  53.0542 194.7288 0001229  94.7481 265.3648 15.06399199101732","SEMIMAJOR_AXIS":"6925.351","LAUNCH_DATE":"2021-04-07","OBJECT_ID":"2021-027AG","EPOCH":"2023-02-02T11:49:50.555136","ARG_OF_PERICENTER":"94.7481"},{"ELEMENT_SET_NO":"999","PERIOD":"95.592","GP_ID":"224255899","BSTAR":"0.00002182400000","NORAD_CAT_ID":"48123","APOAPSIS":"548.163","EPHEMERIS_TYPE":"0","MEAN_MOTION":"15.06396711","OBJECT_ID":"2021-027AH","ARG_OF_PERICENTER":"83.6720","EPOCH":"2023-02-02T18:25:56.251488","SEMIMAJOR_AXIS":"6925.359","TLE_LINE2":"2 48123  53.0511 188.5316 0001357  83.6720 276.4424 15.06396711101830","RA_OF_ASC_NODE":"188.5316","LAUNCH_DATE":"2021-04-07","CLASSIFICATION_TYPE":"U","OBJECT_NAME":"STARLINK-2464","TLE_LINE1":"1 48123U 21027AH  23033.76801217  .00000044  00000-0  21824-4 0  9992","MEAN_ANOMALY":"276.4424","DECAY_DATE":null,"MEAN_MOTION_DOT":"0.00000044","OBJECT_TYPE":"PAYLOAD","MEAN_ELEMENT_THEORY":"SGP4","REV_AT_EPOCH":"10183","ECCENTRICITY":"0.00013570","PERIAPSIS":"546.284","RCS_SIZE":"LARGE","CENTER_NAME":"EARTH","TIME_SYSTEM":"UTC","INCLINATION":"53.0511","FILE":"3768895","SITE":"AFETR","MEAN_MOTION_DDOT":"0.0000000000000","REF_FRAME":"TEME","COUNTRY_CODE":"US"},{"ELEMENT_SET_NO":"999","PERIOD":"95.592","BSTAR":"0.00003170200000","GP_ID":"224239678","APOAPSIS":"548.069","EPHEMERIS_TYPE":"0","MEAN_MOTION":"15.06396335","NORAD_CAT_ID":"48124","OBJECT_ID":"2021-027AJ","EPOCH":"2023-02-02T12:02:27.330144","ARG_OF_PERICENTER":"92.8527","RA_OF_ASC_NODE":"199.7150","TLE_LINE2":"2 48124  53.0547 199.7150 0001219  92.8527 267.2601 15.06396335102056","SEMIMAJOR_AXIS":"6925.360","LAUNCH_DATE":"2021-04-07","MEAN_ANOMALY":"267.2601","TLE_LINE1":"1 48124U 21027AJ  23033.50170521  .00000191  00000-0  31702-4 0  9991","DECAY_DATE":null,"OBJECT_NAME":"STARLINK-2465","CLASSIFICATION_TYPE":"U","OBJECT_TYPE":"PAYLOAD","MEAN_MOTION_DOT":"0.00000191","MEAN_ELEMENT_THEORY":"SGP4","PERIAPSIS":"546.381","ECCENTRICITY":"0.00012190","REV_AT_EPOCH":"10205","TIME_SYSTEM":"UTC","CENTER_NAME":"EARTH","RCS_SIZE":"LARGE","INCLINATION":"53.0547","SITE":"AFETR","FILE":"3768366","COUNTRY_CODE":"US","MEAN_MOTION_DDOT":"0.0000000000000","REF_FRAME":"TEME"},{"RCS_SIZE":"LARGE","CENTER_NAME":"EARTH","TIME_SYSTEM":"UTC","INCLINATION":"53.0521","FILE":"3768712","SITE":"AFETR","COUNTRY_CODE":"US","REF_FRAME":"TEME","MEAN_MOTION_DDOT":"0.0000000000000","CLASSIFICATION_TYPE":"U","TLE_LINE1":"1 48125U 21027AK  23033.91363378 -.00000452  00000-0 -11472-4 0  9995","MEAN_ANOMALY":"266.2468","DECAY_DATE":null,"OBJECT_NAME":"STARLINK-2466","OBJECT_TYPE":"PAYLOAD","MEAN_MOTION_DOT":"-0.00000452","MEAN_ELEMENT_THEORY":"SGP4","PERIAPSIS":"546.325","ECCENTRICITY":"0.00012620","REV_AT_EPOCH":"10158","OBJECT_ID":"2021-027AK","ARG_OF_PERICENTER":"93.8665","EPOCH":"2023-02-02T21:55:37.958592","TLE_LINE2":"2 48125  53.0521 208.1160 0001262  93.8665 266.2468 15.06404666101581","SEMIMAJOR_AXIS":"6925.334","RA_OF_ASC_NODE":"208.1160","LAUNCH_DATE":"2021-04-07","ELEMENT_SET_NO":"999","PERIOD":"95.592","GP_ID":"224251781","BSTAR":"-0.00001147200000","NORAD_CAT_ID":"48125","MEAN_MOTION":"15.06404666","APOAPSIS":"548.073","EPHEMERIS_TYPE":"0"},{"ARG_OF_PERICENTER":"96.3875","EPOCH":"2023-02-02T11:16:01.073568","OBJECT_ID":"2021-027AL","LAUNCH_DATE":"2021-04-07","SEMIMAJOR_AXIS":"6925.374","TLE_LINE2":"2 48126  53.0555 189.8716 0001300  96.3875 263.7262 15.06391564102201","RA_OF_ASC_NODE":"189.8716","PERIOD":"95.593","ELEMENT_SET_NO":"999","NORAD_CAT_ID":"48126","APOAPSIS":"548.140","EPHEMERIS_TYPE":"0","MEAN_MOTION":"15.06391564","GP_ID":"224240666","BSTAR":"0.00000350450000","INCLINATION":"53.0555","RCS_SIZE":"LARGE","CENTER_NAME":"EARTH","TIME_SYSTEM":"UTC","COUNTRY_CODE":"US","REF_FRAME":"TEME","MEAN_MOTION_DDOT":"0.0000000000000","FILE":"3768366","SITE":"AFETR","OBJECT_TYPE":"PAYLOAD","MEAN_MOTION_DOT":"-0.00000229","CLASSIFICATION_TYPE":"U","DECAY_DATE":null,"TLE_LINE1":"1 48126U 21027AL  23033.46945687 -.00000229  00000-0  35045-5 0  9999","MEAN_ANOMALY":"263.7262","OBJECT_NAME":"STARLINK-2467","PERIAPSIS":"546.339","REV_AT_EPOCH":"10220","ECCENTRICITY":"0.00013000","MEAN_ELEMENT_THEORY":"SGP4"},{"ELEMENT_SET_NO":"999","PERIOD":"95.592","MEAN_MOTION":"15.06395912","APOAPSIS":"548.132","EPHEMERIS_TYPE":"0","NORAD_CAT_ID":"48127","BSTAR":"0.00002446300000","GP_ID":"224251983","EPOCH":"2023-02-02T22:11:31.362720","ARG_OF_PERICENTER":"84.8818","OBJECT_ID":"2021-027AM","LAUNCH_DATE":"2021-04-07","RA_OF_ASC_NODE":"207.8254","TLE_LINE2":"2 48127  53.0520 207.8254 0001308  84.8818 275.2320 15.06395912101583","SEMIMAJOR_AXIS":"6925.361","OBJECT_TYPE":"PAYLOAD","MEAN_MOTION_DOT":"0.00000083","MEAN_ANOMALY":"275.2320","TLE_LINE1":"1 48127U 21027AM  23033.92466855  .00000083  00000-0  24463-4 0  9994","DECAY_DATE":null,"OBJECT_NAME":"STARLINK-2468","CLASSIFICATION_TYPE":"U","PERIAPSIS":"546.320","ECCENTRICITY":"0.00013080","REV_AT_EPOCH":"10158","MEAN_ELEMENT_THEORY":"SGP4","INCLINATION":"53.0520","TIME_SYSTEM":"UTC","CENTER_NAME":"EARTH","RCS_SIZE":"LARGE","COUNTRY_CODE":"US","MEAN_MOTION_DDOT":"0.0000000000000","REF_FRAME":"TEME","SITE":"AFETR","FILE":"3768737"},{"EPOCH":"2023-02-02T15:21:30.266496","ARG_OF_PERICENTER":"97.0659","OBJECT_ID":"2021-027AN","LAUNCH_DATE":"2021-04-07","RA_OF_ASC_NODE":"139.1847","TLE_LINE2":"2 48128  53.0528 139.1847 0001423  97.0659 263.0492 15.06400978102523","SEMIMAJOR_AXIS":"6925.346","ELEMENT_SET_NO":"999","PERIOD":"95.592","APOAPSIS":"548.196","EPHEMERIS_TYPE":"0","MEAN_MOTION":"15.06400978","NORAD_CAT_ID":"48128","BSTAR":"0.00001993700000","GP_ID":"224251966","INCLINATION":"53.0528","CENTER_NAME":"EARTH","TIME_SYSTEM":"UTC","RCS_SIZE":"LARGE","REF_FRAME":"TEME","MEAN_MOTION_DDOT":"0.0000000000000","COUNTRY_CODE":"US","SITE":"AFETR","FILE":"3768731","MEAN_MOTION_DOT":"0.00000016","OBJECT_TYPE":"PAYLOAD","OBJECT_NAME":"STARLINK-2469","TLE_LINE1":"1 48128U 21027AN  23033.63993364  .00000016  00000-0  19937-4 0  9999","DECAY_DATE":null,"MEAN_ANOMALY":"263.0492","CLASSIFICATION_TYPE":"U","ECCENTRICITY":"0.00014230","REV_AT_EPOCH":"10252","PERIAPSIS":"546.225","MEAN_ELEMENT_THEORY":"SGP4"}];
